[{"OBJECT_NAME":"STARLINK-4766","OBJECT_ID":"2022-114Y","EPOCH":"2026-03-09T18:35:59.324352","MEAN_MOTION":15.08839965,"ECCENTRICITY":0.00014428,"INCLINATION":53.2167,"RA_OF_ASC_NODE":293.7971,"ARG_OF_PERICENTER":103.3549,"MEAN_ANOMALY":256.7604,"EPHEMERIS_TYPE":0,"CLASSIFICATION_TYPE":"U","NORAD_CAT_ID":53840,"ELEMENT_SET_NO":999,"REV_AT_EPOCH":19298,"BSTAR":-4.2169176e-5,"MEAN_MOTION_DOT":-9.59e-6,"MEAN_MOTION_DDOT":0},{"OBJECT_NAME":"CZ-6A DEB","OBJECT_ID":"2024-140NU","EPOCH":"2026-03-09T12:31:51.442752","MEAN_MOTION":14.86441835,"ECCENTRICITY":0.01338094,"INCLINATION":88.7229,"RA_OF_ASC_NODE":259.52,"ARG_OF_PERICENTER":124.7168,"MEAN_ANOMALY":236.6749,"EPHEMERIS_TYPE":0,"CLASSIFICATION_TYPE":"U","NORAD_CAT_ID":61102,"ELEMENT_SET_NO":999,"REV_AT_EPOCH":8243,"BSTAR":0.0019148109,"MEAN_MOTION_DOT":0.00019972,"MEAN_MOTION_DDOT":0}]
